STARLINK-36094          
1 66851U 25281D   25344.66668981 -.00981359  30208-3 -23763-2 0  9998
2 66851  43.0013 135.2954 0001667 281.4235 210.0940 15.95416525  2464
STARLINK-35992          
1 66852U 25281E   25344.66668981 -.00996651  31096-3 -24039-2 0  9993
2 66852  43.0015 135.2908 0001624 275.4518 217.8803 15.95490858  2460
STARLINK-35986          
1 66853U 25281F   25344.66668981 -.01038402  33553-3 -24896-2 0  9997
2 66853  43.0015 135.2841 0001635 275.5982 220.3793 15.95608593  2469
STARLINK-36087          
1 66854U 25281G   25344.66668981 -.01085412  36419-3 -25875-2 0  9993
2 66854  43.0014 135.2774 0001626 269.4535 229.0445 15.95721326  2460
STARLINK-36090          
1 66855U 25281H   25344.66668981 -.01121625  38703-3 -26621-2 0  9999
2 66855  43.0015 135.2723 0001596 269.5680 230.9611 15.95808262  2465
STARLINK-36072          
1 66856U 25281J   25344.66668981 -.01158350  41088-3 -27361-2 0  9997
2 66856  43.0014 135.2663 0001643 276.2049 226.6934 15.95902482  2464
STARLINK-36083          
1 66857U 25281K   25344.66668981 -.01181694  42646-3 -27806-2 0  9990
2 66857  43.0014 135.2616 0001655 277.0441 227.7970 15.95976314  2468
STARLINK-35118          
1 66858U 25281L   25344.66668981 -.01195394  43585-3 -28024-2 0  9999
2 66858  43.0016 135.2559 0001625 274.4321 232.4648 15.96046904  2461
STARLINK-35646          
1 66859U 25281M   25344.66668981 -.01210178  44611-3 -28252-2 0  9992
2 66859  43.0016 135.2504 0001681 276.3454 232.8564 15.96125298  2467
STARLINK-35987          
1 66860U 25281N   25344.66668981 -.01236658  46593-3 -28282-2 0  9999
2 66860  43.0016 135.2202 0001581 268.6575 252.4584 15.96505755  2461
STARLINK-35991          
1 66861U 25281P   25344.66668981 -.01225954  45751-3 -28388-2 0  9999
2 66861  43.0017 135.2384 0001589 271.8161 242.1053 15.96277539  2462
STARLINK-35974          
1 66862U 25281Q   25344.66668981 -.01217847  45166-3 -28311-2 0  9998
2 66862  43.0016 135.2443 0001585 276.2426 235.4564 15.96204816  2467
STARLINK-36134          
1 66863U 25281R   25344.66668981 -.01232146  46217-3 -28390-2 0  9993
2 66863  43.0020 135.2311 0001559 271.3805 245.4654 15.96368931  2465
STARLINK-36070          
1 66864U 25281S   25344.66668981 -.01231853  46229-3 -28281-2 0  9990
2 66864  43.0019 135.2256 0001545 273.7453 245.1559 15.96435157  2468
STARLINK-36117          
1 66865U 25281T   25344.66668981 -.01242568  47038-3 -28297-2 0  9992
2 66865  43.0019 135.2145 0001587 270.3957 253.0482 15.96583953  2465
STARLINK-36126          
1 66866U 25281U   25344.75002315 -.01224235  45710-3 -28095-2 0  9998
2 66866  43.0020 134.6885 0001689 273.0721  11.8299 15.96440327  2478
STARLINK-36101          
1 66867U 25281V   25344.75002315 -.01223728  45712-3 -27961-2 0  9998
2 66867  43.0022 134.6817 0001686 274.9191  12.5728 15.96520047  2477
STARLINK-36108          
1 66868U 25281W   25344.75002315 -.01232542  46361-3 -28019-2 0  9999
2 66868  43.0020 134.6746 0001671 272.8842  17.3898 15.96614278  2472
STARLINK-36092          
1 66869U 25281X   25344.75002315 -.01236576  46674-3 -27998-2 0  9993
2 66869  43.0021 134.6691 0001731 274.3433  18.0804 15.96687641  2472
STARLINK-36114          
1 66870U 25281Y   25344.75002315 -.01241749  47077-3 -27970-2 0  9991
2 66870  43.0020 134.6620 0001629 272.0351  23.2092 15.96782568  2476
STARLINK-36095          
1 66871U 25281Z   25344.75002315 -.01246757  47473-3 -27933-2 0  9995
2 66871  43.0018 134.6543 0001630 274.0170  24.1112 15.96880545  2478
STARLINK-36082          
1 66872U 25281AA  25344.75002315 -.01239806  47019-3 -27683-2 0  9991
2 66872  43.0018 134.6495 0001725 271.8713  28.1659 15.96940670  2474
STARLINK-36128          
1 66873U 25281AB  25344.75002315 -.01256354  48300-3 -27664-2 0  9992
2 66873  43.0015 134.6311 0001713 272.8425  34.4024 15.97195544  2421
STARLINK-36129          
1 66874U 25281AC  25344.75002315 -.01246183  47510-3 -27677-2 0  9998
2 66874  43.0018 134.6426 0001722 273.4070  29.3953 15.97038594  2475
STARLINK-36053          
1 66875U 25281AD  25344.75002315 -.01252507  48070-3 -27453-2 0  9990
2 66875  43.0017 134.6244 0001692 274.4156  35.2421 15.97277493  2429
STARLINK-35702          
1 66876U 25281AE  25344.75002315 -.01244535  47441-3 -27497-2 0  9992
2 66876  43.0020 134.6356 0001742 276.3063  29.2605 15.97131878  2470
ZQ-3 R/B                
1 66877U 25282A   25344.54971036  .01257378  73723-5  26051-3 0  9993
2 66877  56.9528  66.0239 0805460 216.1667 138.2240 14.53151085  1070
1998-067XS              
1 66906U 98067XS  25345.18243348  .00038814  00000+0  67409-3 0  9991
2 66906  51.6302 150.1407 0003747 195.2111 164.8766 15.50439588  1372
1998-067XT              
1 66907U 98067XT  25343.50529068  .00076342  00000+0  12921-2 0  9998
2 66907  51.6307 158.4423 0004803 208.5081 151.5646 15.50864429  1113
1998-067XU              
1 66908U 98067XU  25344.66485337  .00087912  00000+0  14714-2 0  9994
2 66908  51.6304 152.6848 0004812 213.5482 146.5203 15.51115637  1292
SILVERSAT               
1 66909U 98067XV  25344.72904365  .00091869  00000+0  15306-2 0  9993
2 66909  51.6307 152.3636 0004668 216.2554 143.8119 15.51224506  1301
1998-067XW              
1 66910U 98067XW  25344.47007597  .00083191  00000+0  13818-2 0  9993
2 66910  51.6299 153.6351 0005541 197.1967 162.8836 15.51350337  1261
1998-067XX              
1 66911U 98067XX  25345.17815372  .00098261  00000+0  16096-2 0  9995
2 66911  51.6299 150.1129 0005192 201.0739 159.0037 15.51664190  1368
1998-067XY              
1 66912U 98067XY  25344.73012555  .00067697  00000+0  11490-2 0  9991
2 66912  51.6309 152.3712 0004791 213.0974 146.9716 15.50838333  1293
2025-284A               
1 66913U 25284A   25345.21361947  .00015934  00000+0  76013-3 0  9999
2 66913  80.4047 131.6993 0012010 209.2547 150.8009 15.18919324   898
2025-284B               
1 66914U 25284B   25345.21317606  .00015357  00000+0  73440-3 0  9993
2 66914  80.4056 131.7006 0008259 251.8131 108.2198 15.18871742   894
HULIANWANG DIGUI-105    
1 66915U 25285A   25345.20864899  .00000179  00000+0  20268-3 0  9991
2 66915  50.0035 123.5166 0008125 277.5008  82.4974 14.05467524   698
HULIANWANG DIGUI-106    
1 66916U 25285B   25345.20848287  .00000165  00000+0  19384-3 0  9997
2 66916  50.0046 123.5170 0006960 272.2639  87.7469 14.05513814   694
HULIANWANG DIGUI-107    
1 66917U 25285C   25345.20823936  .00000170  00000+0  19675-3 0  9991
2 66917  50.0009 123.5125 0007571 279.8924  80.1127 14.05579308   691
HULIANWANG DIGUI-108    
1 66918U 25285D   25345.20782089  .00000172  00000+0  19782-3 0  9996
2 66918  50.0043 123.5120 0006468 275.1488  84.8679 14.05704466   691
HULIANWANG DIGUI-109    
1 66919U 25285E   25345.20776244 -.00000155  00000+0 -16698-5 0  9991
2 66919  50.0054 123.5150 0007833 286.8271  73.1775 14.05715181   697
HULIANWANG DIGUI-110    
1 66920U 25285F   25345.20731444  .00000148  00000+0  18255-3 0  9995
2 66920  50.0090 123.5158 0005822 283.4384  76.5872 14.05850252   695
HULIANWANG DIGUI-111    
1 66921U 25285G   25345.34935793  .00000448  00000+0  36468-3 0  9993
2 66921  50.0116 122.9361 0006978 290.4659  69.5497 14.05885920   718
HULIANWANG DIGUI-112    
1 66922U 25285H   25345.20680303 -.00000151  00000+0  71513-6 0  9998
2 66922  50.0082 123.5106 0006943 295.3358  64.6828 14.05998607   695
HULIANWANG DIGUI-113    
1 66923U 25285J   25345.20660118  .00000166  00000+0  19313-3 0  9993
2 66923  50.0077 123.5110 0005396 291.1460  68.8868 14.06055454   699
CZ-8A R/B               
1 66924U 25285K   25345.12439944  .00000094  00000+0  92035-4 0  9999
2 66924  50.0062 123.0306 0119311 101.0445 260.3916 14.30500747   691
HULIANWANG DIGUI-114    
1 66953U 25287A   25344.28842681  .00000025  00000+0  96496-5 0  9995
2 66953  86.4956 347.0512 0008244 213.3003 146.7638 13.69073793   194
HULIANWANG DIGUI-115    
1 66954U 25287B   25344.43449577  .00000026  00000+0  11008-4 0  9996
2 66954  86.4972 346.9997 0008195 212.0231 148.0431 13.69168852   212
HULIANWANG DIGUI-116    
1 66955U 25287C   25343.41133017  .00000020  00000+0  34705-5 0  9997
2 66955  86.4914 347.3632 0007632 209.8722 150.2003 13.69296672    70
HULIANWANG DIGUI-117    
1 66956U 25287D   25344.36118277  .00000026  00000+0  10798-4 0  9995
2 66956  86.4971 347.0263 0007071 199.7388 160.3499 13.69398761   201
HULIANWANG DIGUI-118    
1 66957U 25287E   25344.36107273 -.00000156  00000+0 -19875-3 0  9990
2 66957  86.4942 347.0238 0006899 197.5170 162.5753 13.69509074   202
CZ-6A R/B               
1 66958U 25287F   25344.98137471  .00000736  00000+0  50888-3 0  9993
2 66958  86.5059 346.7694 0107190 107.4137 253.8791 13.94919329   295
YAOGAN-47               
1 66988U 25289A   25344.44140095  .00005840  00000+0  24588-3 0  9994
2 66988  97.5219  49.5452 0003183 188.4341 171.6843 15.23753581   195
CZ-4B R/B               
1 66989U 25289B   25344.60307110  .00055635  30614-5  28721-3 0  9996
2 66989  97.5247  49.7881 0151927  11.1182 349.3371 15.66312523   239
TJS-22                  
1 66990U 25290A   25344.29968571 -.00000038  00000+0  79788-1 0  9994
2 66990  20.1261 301.1464 6664534 180.6877 177.6237  2.15443148    32
CZ-3B R/B               
1 66991U 25290B   25344.28119881  .00018897  45621-6  43781-3 0  9998
2 66991  28.4645 302.5976 7242055 179.3847 182.8677  2.37676924    36
